SCD 1                   
1 22490U 93009B   26167.55728462  .00000341  00000+0  42321-4 0  9992
2 22490  24.9678 211.4672 0042100 131.0609   1.4980 14.46118659761028
TECHSAT 1B (GO-32)      
1 25397U 98043D   26167.57268889  .00000031  00000+0  33417-4 0  9990
2 25397  99.0067 160.3158 0001025 164.2702 195.8508 14.24428266451244
SCD 2                   
1 25504U 98060A   26167.05369787  .00000362  00000+0  50288-4 0  9993
2 25504  24.9952  79.1473 0016965 111.0820 271.9229 14.45525509460169
DLR-TUBSAT              
1 25757U 99029B   26167.53563879  .00000051  00000+0  24465-4 0  9993
2 25757  98.6695 163.0183 0014092 357.2296   2.8818 14.52426703433150
TERRA                   
1 25994U 99068A   26167.61753826  .00000322  00000+0  74432-4 0  9991
2 25994  97.9457 217.1863 0001535 191.4491 287.0272 14.61102711409525
MAROC-TUBSAT            
1 27004U 01056D   26167.49068571 -.00000038  00000+0  92395-5 0  9991
2 27004  99.8081 344.3371 0020303 143.0086 277.0108 13.70262450226099
AQUA                    
1 27424U 02022A   26167.58956589  .00000637  00000+0  13637-3 0  9990
2 27424  98.4277 136.8604 0001125  52.9778  84.0784 14.62157357283187
SHIYAN-1 (SY-1)         
1 28220U 04012A   26167.46595889  .00011366  00000+0  35067-3 0  9997
2 28220  97.8692 245.4870 0005657  35.2478 324.9136 15.33745480210987
AURA                    
1 28376U 04026A   26167.57527423  .00000613  00000+0  13384-3 0  9996
2 28376  98.3417 124.0235 0001218  74.7468 285.3867 14.61328241166122
IRS-P5 (CARTOSAT-1)     
1 28649U 05017A   26167.60853884  .00001270  00000+0  13365-3 0  9996
2 28649  97.5308 190.6992 0002595  80.3508 279.8004 14.91048079143735
SINAH 1                 
1 28893U 05043D   26167.64412364  .00000243  00000+0  55664-4 0  9992
2 28893  98.2860 301.9629 0013131 278.6763  81.2951 14.64157314100444
RESURS-DK 1             
1 29228U 06021A   26167.57263848  .00001907  00000+0  11318-3 0  9990
2 29228  69.9342 341.1432 0006930 292.5196  67.5236 15.13216709102487
ARIRANG-2 (KOMPSAT-2)   
1 29268U 06031A   26167.61550494 -.00000021  00000+0  45214-5 0  9997
2 29268  97.8299 352.0896 0015929  76.2393  15.5359 14.64659084 61396
LAPAN-TUBSAT            
1 29709U 07001A   26167.58096836  .00000274  00000+0  37984-4 0  9999
2 29709  98.1335 166.7912 0011786 181.1578 178.9611 14.85950416 51062
HAIYANG-1B              
1 31113U 07010A   26167.51552495  .00000065  00000+0  40579-4 0  9994
2 31113  98.3495 149.3868 0012974 198.4093 161.6623 14.31026743   540
COSMO-SKYMED 1          
1 31598U 07023A   26167.60031215  .00002170  00000+0  19331-3 0  9997
2 31598  97.8841 359.4509 0001281 100.3310 259.8056 14.97096552 29701
TERRASAR-X              
1 31698U 07026A   26166.54501914  .00000298  00000+0  17394-4 0  9998
2 31698  97.4452 174.2739 0001604  89.1769 270.9649 15.19148908 52970
WORLDVIEW-1 (WV-1)      
1 32060U 07041A   26167.56994656  .00004836  00000+0  20105-3 0  9996
2 32060  97.3881 287.3220 0002321  22.9500 337.1841 15.24261170 42786
YAOGAN-3                
1 32289U 07055A   26167.59038891  .00001774  00000+0  18607-3 0  9999
2 32289  97.8152 197.4740 0001981  81.3238 278.8205 14.90781981  5784
COSMO-SKYMED 2          
1 32376U 07059A   26167.62096241  .00000314  00000+0  46020-4 0  9997
2 32376  97.8886 351.2271 0001351  87.1902 272.9465 14.82154585  1927
RADARSAT-2              
1 32382U 07061A   26167.61798723  .00000144  00000+0  72564-4 0  9993
2 32382  98.5770 174.5582 0001288  82.3560 277.7769 14.29982121965870
CARTOSAT-2A             
1 32783U 08021A   26167.64066087  .00001273  00000+0  17790-3 0  9992
2 32783  97.7634 216.3680 0013173 110.2970 249.9660 14.79240741978720
HUANJING 1A (HJ-1A)     
1 33320U 08041A   26167.62690392  .00000277  00000+0  39296-4 0  9991
2 33320  97.6675 153.4866 0019880 136.4579 223.8210 14.83982705958329
HUANJING 1B (HJ-1B)     
1 33321U 08041B   26167.59572162  .00000964  00000+0  12268-3 0  9994
2 33321  97.6510 156.6303 0035977 182.9025 177.1987 14.83316293958321
GEOEYE 1                
1 33331U 08042A   26167.53709284  .00000392  00000+0  82455-4 0  9998
2 33331  98.1236 241.4766 0005426  71.2505 288.9286 14.64725233950050
THEOS                   
1 33396U 08049A   26167.61658116  .00000286  00000+0  15391-3 0  9998
2 33396  98.5574 224.9187 0001230  78.8718 281.2597 14.20134324917883
COSMO-SKYMED 3          
1 33412U 08054A   26167.61195331  .00003668  00000+0  24916-3 0  9998
2 33412  97.8283  26.1731 0014232 268.9070  91.0526 15.06952040956854
YAOGAN-4                
1 33446U 08061A   26167.55993201  .00000803  00000+0  10481-3 0  9998
2 33446  97.9308 101.0748 0015738  74.3453 285.9496 14.83199022945571
GOSAT (IBUKI)           
1 33492U 09002A   26167.59289939  .00000946  00000+0  17528-3 0  9992
2 33492  98.0886 278.6818 0001627  85.3454 274.7937 14.67540277931372
DEIMOS-1                
1 35681U 09041A   26167.64375588  .00000181  00000+0  33847-4 0  9993
2 35681  97.7395 324.8945 0001566 130.8476 229.2870 14.75236206906806
